{
  "type": "FeatureCollection",
  "features": [
    {
      "type": "Feature",
      "properties": {
        "norad_id": 40545,
        "name": "GSAT0204 (GALILEO 8)",
        "group": "gnss",
        "lat": -26.573421721546268,
        "lon": -174.63249125420336,
        "alt_km": 23214.902312422404,
        "timestamp": "2025-12-27T08:36:18.624260+00:00",
        "meta_object_name": "GSAT0204 (GALILEO 8)",
        "meta_object_id": "2015-017B",
        "meta_epoch": "2025-12-20T13:26:28.826304",
        "meta_mean_motion": 1.70475697,
        "meta_eccentricity": 0.0006133,
        "meta_inclination": 56.8522,
        "meta_ra_of_asc_node": 346.4847,
        "meta_arg_of_pericenter": 266.5447,
        "meta_mean_anomaly": 93.3948,
        "meta_ephemeris_type": 0,
        "meta_classification_type": "U",
        "meta_norad_cat_id": 40545,
        "meta_element_set_no": 999,
        "meta_rev_at_epoch": 2920,
        "meta_bstar": 0,
        "meta_mean_motion_dot": -7e-07,
        "meta_mean_motion_ddot": 0,
        "tle_line1": "1 40545U 15017B   25354.56005586 -.00000070  00000+0  00000+0 0  9992",
        "tle_line2": "2 40545  56.8522 346.4847 0006133 266.5447  93.3948  1.70475697 29206"
      },
      "geometry": {
        "type": "Point",
        "coordinates": [
          -174.63249125420336,
          -26.573421721546268
        ]
      }
    },
    {
      "type": "Feature",
      "properties": {
        "norad_id": 40549,
        "name": "BEIDOU-3S IGSO-1S (C31)",
        "group": "gnss",
        "lat": 16.895967800401746,
        "lon": -47.47737705254965,
        "alt_km": 35931.62473238926,
        "timestamp": "2025-12-27T08:36:18.624280+00:00",
        "meta_object_name": "BEIDOU-3S IGSO-1S (C31)",
        "meta_object_id": "2015-019A",
        "meta_epoch": "2025-12-26T19:27:32.429664",
        "meta_mean_motion": 1.00290016,
        "meta_eccentricity": 0.00365106,
        "meta_inclination": 49.5251,
        "meta_ra_of_asc_node": 297.5457,
        "meta_arg_of_pericenter": 194.1839,
        "meta_mean_anomaly": 350.566,
        "meta_ephemeris_type": 0,
        "meta_classification_type": "U",
        "meta_norad_cat_id": 40549,
        "meta_element_set_no": 999,
        "meta_rev_at_epoch": 3934,
        "meta_bstar": 0,
        "meta_mean_motion_dot": -1.81e-06,
        "meta_mean_motion_ddot": 0,
        "tle_line1": "1 40549U 15019A   25360.81079201 -.00000181  00000+0  00000+0 0  9991",
        "tle_line2": "2 40549  49.5251 297.5457 0036510 194.1839 350.5660  1.00290016 39342"
      },
      "geometry": {
        "type": "Point",
        "coordinates": [
          -47.47737705254965,
          16.895967800401746
        ]
      }
    },
    {
      "type": "Feature",
      "properties": {
        "norad_id": 40730,
        "name": "GPS BIIF-10 (PRN 08)",
        "group": "gnss",
        "lat": 49.72380828617869,
        "lon": 35.60713496007725,
        "alt_km": 20134.433295131952,
        "timestamp": "2025-12-27T08:36:18.624293+00:00",
        "meta_object_name": "GPS BIIF-10 (PRN 08)",
        "meta_object_id": "2015-033A",
        "meta_epoch": "2025-12-26T05:05:23.462304",
        "meta_mean_motion": 2.00564909,
        "meta_eccentricity": 0.0111756,
        "meta_inclination": 54.1189,
        "meta_ra_of_asc_node": 274.2184,
        "meta_arg_of_pericenter": 27.1685,
        "meta_mean_anomaly": 333.4602,
        "meta_ephemeris_type": 0,
        "meta_classification_type": "U",
        "meta_norad_cat_id": 40730,
        "meta_element_set_no": 999,
        "meta_rev_at_epoch": 7652,
        "meta_bstar": 0,
        "meta_mean_motion_dot": -2e-07,
        "meta_mean_motion_ddot": 0,
        "tle_line1": "1 40730U 15033A   25360.21207711 -.00000020  00000+0  00000+0 0  9994",
        "tle_line2": "2 40730  54.1189 274.2184 0111756  27.1685 333.4602  2.00564909 76528"
      },
      "geometry": {
        "type": "Point",
        "coordinates": [
          35.60713496007725,
          49.72380828617869
        ]
      }
    },
    {
      "type": "Feature",
      "properties": {
        "norad_id": 40748,
        "name": "BEIDOU-3S M2S (C58)",
        "group": "gnss",
        "lat": -54.79242559712901,
        "lon": -149.73161929375254,
        "alt_km": 21501.221559178,
        "timestamp": "2025-12-27T08:36:18.624305+00:00",
        "meta_object_name": "BEIDOU-3S M2S (C58)",
        "meta_object_id": "2015-037A",
        "meta_epoch": "2025-12-26T23:05:37.447872",
        "meta_mean_motion": 1.86229536,
        "meta_eccentricity": 0.0011828,
        "meta_inclination": 55.026,
        "meta_ra_of_asc_node": 307.9761,
        "meta_arg_of_pericenter": 271.2374,
        "meta_mean_anomaly": 88.6344,
        "meta_ephemeris_type": 0,
        "meta_classification_type": "U",
        "meta_norad_cat_id": 40748,
        "meta_element_set_no": 999,
        "meta_rev_at_epoch": 7091,
        "meta_bstar": 0,
        "meta_mean_motion_dot": -5.8e-07,
        "meta_mean_motion_ddot": 0,
        "tle_line1": "1 40748U 15037A   25360.96223898 -.00000058  00000+0  00000+0 0  9994",
        "tle_line2": "2 40748  55.0260 307.9761 0011828 271.2374  88.6344  1.86229536 70914"
      },
      "geometry": {
        "type": "Point",
        "coordinates": [
          -149.73161929375254,
          -54.79242559712901
        ]
      }
    },
    {
      "type": "Feature",
      "properties": {
        "norad_id": 40749,
        "name": "BEIDOU-3S M1S (C57)",
        "group": "gnss",
        "lat": 49.091489482950884,
        "lon": 74.11630798517118,
        "alt_km": 21523.463913518186,
        "timestamp": "2025-12-27T08:36:18.624316+00:00",
        "meta_object_name": "BEIDOU-3S M1S (C57)",
        "meta_object_id": "2015-037B",
        "meta_epoch": "2025-12-26T02:48:07.376256",
        "meta_mean_motion": 1.86253839,
        "meta_eccentricity": 0.0003725,
        "meta_inclination": 55.0231,
        "meta_ra_of_asc_node": 307.9941,
        "meta_arg_of_pericenter": 3.0016,
        "meta_mean_anomaly": 357.0085,
        "meta_ephemeris_type": 0,
        "meta_classification_type": "U",
        "meta_norad_cat_id": 40749,
        "meta_element_set_no": 999,
        "meta_rev_at_epoch": 7090,
        "meta_bstar": 0,
        "meta_mean_motion_dot": -5.5e-07,
        "meta_mean_motion_ddot": 0,
        "tle_line1": "1 40749U 15037B   25360.11675204 -.00000055  00000+0  00000+0 0  9991",
        "tle_line2": "2 40749  55.0231 307.9941 0003725   3.0016 357.0085  1.86253839 70901"
      },
      "geometry": {
        "type": "Point",
        "coordinates": [
          74.11630798517118,
          49.091489482950884
        ]
      }
    },
    {
      "type": "Feature",
      "properties": {
        "norad_id": 40889,
        "name": "GSAT0205 (GALILEO 9)",
        "group": "gnss",
        "lat": -4.570100307892527,
        "lon": -136.8426971493838,
        "alt_km": 23210.828625283288,
        "timestamp": "2025-12-27T08:36:18.624327+00:00",
        "meta_object_name": "GSAT0205 (GALILEO 9)",
        "meta_object_id": "2015-045A",
        "meta_epoch": "2025-12-23T06:16:38.782272",
        "meta_mean_motion": 1.70473104,
        "meta_eccentricity": 0.00062228,
        "meta_inclination": 55.0001,
        "meta_ra_of_asc_node": 226.4673,
        "meta_arg_of_pericenter": 42.5636,
        "meta_mean_anomaly": 317.5856,
        "meta_ephemeris_type": 0,
        "meta_classification_type": "U",
        "meta_norad_cat_id": 40889,
        "meta_element_set_no": 999,
        "meta_rev_at_epoch": 6401,
        "meta_bstar": 0,
        "meta_mean_motion_dot": 7.3e-07,
        "meta_mean_motion_ddot": 0,
        "tle_line1": "1 40889U 15045A   25357.26155998  .00000073  00000+0  00000+0 0  9999",
        "tle_line2": "2 40889  55.0001 226.4673 0006222  42.5636 317.5856  1.70473104 64013"
      },
      "geometry": {
        "type": "Point",
        "coordinates": [
          -136.8426971493838,
          -4.570100307892527
        ]
      }
    },
    {
      "type": "Feature",
      "properties": {
        "norad_id": 40890,
        "name": "GSAT0206 (GALILEO 10)",
        "group": "gnss",
        "lat": -31.09371259136036,
        "lon": 71.35120669487901,
        "alt_km": 23238.377662395193,
        "timestamp": "2025-12-27T08:36:18.624342+00:00",
        "meta_object_name": "GSAT0206 (GALILEO 10)",
        "meta_object_id": "2015-045B",
        "meta_epoch": "2025-12-25T05:48:23.394816",
        "meta_mean_motion": 1.7047315,
        "meta_eccentricity": 0.0004109,
        "meta_inclination": 54.9985,
        "meta_ra_of_asc_node": 226.4076,
        "meta_arg_of_pericenter": 41.5093,
        "meta_mean_anomaly": 318.6128,
        "meta_ephemeris_type": 0,
        "meta_classification_type": "U",
        "meta_norad_cat_id": 40890,
        "meta_element_set_no": 999,
        "meta_rev_at_epoch": 6407,
        "meta_bstar": 0,
        "meta_mean_motion_dot": 7e-07,
        "meta_mean_motion_ddot": 0,
        "tle_line1": "1 40890U 15045B   25359.24193744  .00000070  00000+0  00000+0 0  9999",
        "tle_line2": "2 40890  54.9985 226.4076 0004109  41.5093 318.6128  1.70473150 64070"
      },
      "geometry": {
        "type": "Point",
        "coordinates": [
          71.35120669487901,
          -31.09371259136036
        ]
      }
    }
  ]
}